[{"OBJECT_NAME":"STARLINK-34452","OBJECT_ID":"2025-129P","EPOCH":"2026-03-09T10:46:06.539520","MEAN_MOTION":14.98320945,"ECCENTRICITY":0.00035127,"INCLINATION":70.0016,"RA_OF_ASC_NODE":74.966,"ARG_OF_PERICENTER":268.408,"MEAN_ANOMALY":91.6677,"EPHEMERIS_TYPE":0,"CLASSIFICATION_TYPE":"U","NORAD_CAT_ID":64425,"ELEMENT_SET_NO":999,"REV_AT_EPOCH":4125,"BSTAR":-0.00082466371,"MEAN_MOTION_DOT":-9.917e-5,"MEAN_MOTION_DDOT":0},{"OBJECT_NAME":"CZ-6A DEB","OBJECT_ID":"2024-140JB","EPOCH":"2026-03-09T22:07:15.667968","MEAN_MOTION":14.69602052,"ECCENTRICITY":0.01342116,"INCLINATION":88.72,"RA_OF_ASC_NODE":261.6605,"ARG_OF_PERICENTER":139.244,"MEAN_ANOMALY":221.8914,"EPHEMERIS_TYPE":0,"CLASSIFICATION_TYPE":"U","NORAD_CAT_ID":60848,"ELEMENT_SET_NO":999,"REV_AT_EPOCH":8242,"BSTAR":0.0030457487,"MEAN_MOTION_DOT":0.00020848,"MEAN_MOTION_DDOT":0}]
